NORAD_CAT_ID,OBJECT_NAME,OBJECT_TYPE,EPOCH,MEAN_MOTION,ECCENTRICITY,INCLINATION,RA_OF_ASC_NODE,ARG_OF_PERICENTER,MEAN_ANOMALY,BSTAR,MEAN_MOTION_DOT,MEAN_MOTION_DDOT,TLE_LINE0,TLE_LINE1,TLE_LINE2,SEMIMAJOR_AXIS,PERIOD,APOGEE,PERIGEE,DECAYED
55950.0,STARLINK-5911,PAYLOAD,2024-04-07 09:27:11,14.98315491,0.0002634,70.0007,232.7582,272.4998,87.5859,0.0001232,1.377e-05,0.0,0 STARLINK-5911,1 55950U 23037AN  24098.39387903  .00001377  00000-0  12320-3 0  9993,2 55950  70.0007 232.7582 0002634 272.4998  87.5859 14.98315491 59769,6950.238,96.108,573.933,570.272,0.0
55950.0,STARLINK-5911,PAYLOAD,2024-04-07 15:51:43,14.9832056,0.0002325,70.0009,232.085,264.7848,95.3046,7.5341e-05,8.06e-06,0.0,0 STARLINK-5911,1 55950U 23037AN  24098.66091672  .00000806  00000-0  75341-4 0  9997,2 55950  70.0009 232.0850 0002325 264.7848  95.3046 14.98320560 59462,6950.222,96.108,573.703,570.471,0.0
55950.0,STARLINK-5911,PAYLOAD,2024-04-08 01:28:31,14.98329252,0.0002788,70.0015,231.0751,272.0909,87.9931,-7.6016e-05,-1e-05,0.0,0 STARLINK-5911,1 55950U 23037AN  24099.06147528 -.00001000  00000-0 -76016-4 0  9993,2 55950  70.0015 231.0751 0002788 272.0909  87.9931 14.98329252 59862,6950.195,96.107,573.998,570.122,0.0
55950.0,STARLINK-5911,PAYLOAD,2024-04-08 09:29:11,14.98328349,0.0003094,70.0007,230.2336,273.8954,86.1851,2.7737e-05,2.38e-06,0.0,0 STARLINK-5911,1 55950U 23037AN  24099.39527272  .00000238  00000-0  27737-4 0  9993,2 55950  70.0007 230.2336 0003094 273.8954  86.1851 14.98328349 59579,6950.198,96.107,574.213,569.913,0.0
55950.0,STARLINK-5911,PAYLOAD,2024-04-08 19:05:59,14.98332574,0.0003039,70.0009,229.2235,274.5725,85.5087,5.4488e-05,5.57e-06,0.0,0 STARLINK-5911,1 55950U 23037AN  24099.79582934  .00000557  00000-0  54488-4 0  9990,2 55950  70.0009 229.2235 0003039 274.5725  85.5087 14.98332574 59973,6950.185,96.107,574.162,569.938,0.0
55950.0,STARLINK-5911,PAYLOAD,2024-04-09 14:19:36,14.98331171,0.0002981,70.0005,227.2044,270.3552,89.7265,5.5367e-05,5.68e-06,0.0,0 STARLINK-5911,1 55950U 23037AN  24100.59694988  .00000568  00000-0  55367-4 0  9993,2 55950  70.0005 227.2044 0002981 270.3552  89.7265 14.98331171 59754,6950.189,96.107,574.126,569.982,0.0
55950.0,STARLINK-5911,PAYLOAD,2024-04-10 01:32:33,14.98321449,0.0002893,70.0022,226.0275,268.1979,91.8849,2.7545e-05,2.36e-06,0.0,0 STARLINK-5911,1 55950U 23037AN  24101.06427795  .00000236  00000-0  27545-4 0  9995,2 55950  70.0022 226.0275 0002893 268.1979  91.8849 14.98321449 60162,6950.219,96.108,574.095,570.074,0.0
55950.0,STARLINK-5911,PAYLOAD,2024-04-10 09:33:15,14.9830989,0.0002943,70.0015,225.1848,269.6012,90.481,-0.00024023,-2.957e-05,0.0,0 STARLINK-5911,1 55950U 23037AN  24101.39809504 -.00002957  00000-0 -24023-3 0  9994,2 55950  70.0015 225.1848 0002943 269.6012  90.4810 14.98309890 60215,6950.255,96.108,574.166,570.075,0.0
55950.0,STARLINK-5911,PAYLOAD,2024-04-10 14:21:39,14.98311976,0.0002856,70.0014,224.6797,269.9062,90.177,-0.00020712,-2.562e-05,0.0,0 STARLINK-5911,1 55950U 23037AN  24101.59837510 -.00002562  00000-0 -20712-3 0  9997,2 55950  70.0014 224.6797 0002856 269.9062  90.1770 14.98311976 59906,6950.249,96.108,574.099,570.129,0.0
55950.0,STARLINK-5911,PAYLOAD,2024-04-10 17:33:56,14.98307462,0.0002522,70.003,224.3444,270.3124,89.7746,-0.00021482,-2.654e-05,0.0,0 STARLINK-5911,1 55950U 23037AN  24101.73190051 -.00002654  00000-0 -21482-3 0  9992,2 55950  70.0030 224.3444 0002522 270.3124  89.7746 14.98307462 59929,6950.263,96.108,573.88,570.375,0.0
55950.0,STARLINK-5911,PAYLOAD,2024-04-11 01:34:35,14.9832369,0.0003044,70.001,223.5012,270.7753,89.3058,-4.2806e-05,-6.04e-06,0.0,0 STARLINK-5911,1 55950U 23037AN  24102.06568682 -.00000604  00000-0 -42806-4 0  9995,2 55950  70.0010 223.5012 0003044 270.7753  89.3058 14.98323690 60319,6950.212,96.107,574.193,569.962,0.0
55950.0,STARLINK-5911,PAYLOAD,2024-04-11 12:47:31,14.98332461,0.000303,70.0007,222.3232,271.9197,88.1615,5.6705e-05,5.84e-06,0.0,0 STARLINK-5911,1 55950U 23037AN  24102.53299958  .00000584  00000-0  56705-4 0  9992,2 55950  70.0007 222.3232 0003030 271.9197  88.1615 14.98332461 60385,6950.185,96.107,574.156,569.944,0.0
55950.0,STARLINK-5911,PAYLOAD,2024-04-11 14:23:38,14.98335808,0.0003229,70.0002,222.155,270.9595,89.1194,9.0049e-05,9.82e-06,0.0,0 STARLINK-5911,1 55950U 23037AN  24102.59975618  .00000982  00000-0  90049-4 0  9993,2 55950  70.0002 222.1550 0003229 270.9595  89.1194 14.98335808 60057,6950.175,96.107,574.284,569.796,0.0
55950.0,STARLINK-5911,PAYLOAD,2024-04-11 17:35:54,14.98339301,0.0003049,70.0006,221.8183,270.3876,89.6933,0.00012701,1.423e-05,0.0,0 STARLINK-5911,1 55950U 23037AN  24102.73327255  .00001423  00000-0  12701-3 0  9996,2 55950  70.0006 221.8183 0003049 270.3876  89.6933 14.98339301 60413,6950.164,96.106,574.148,569.91,0.0
55950.0,STARLINK-5911,PAYLOAD,2024-04-12 01:36:35,14.98325051,0.0003158,70.0005,220.9766,272.8988,87.181,0.00031243,3.636e-05,0.0,0 STARLINK-5911,1 55950U 23037AN  24103.06707462  .00003636  00000-0  31243-3 0  9995,2 55950  70.0005 220.9766 0003158 272.8988  87.1810 14.98325051 60460,6950.208,96.107,574.268,569.878,0.0
55950.0,STARLINK-5911,PAYLOAD,2024-04-12 14:25:39,14.98331851,0.000329,70.0006,219.6302,275.3044,84.774,0.00030959,3.603e-05,0.0,0 STARLINK-5911,1 55950U 23037AN  24103.60115125  .00003603  00000-0  30959-3 0  9991,2 55950  70.0006 219.6302 0003290 275.3044  84.7740 14.98331851 60202,6950.187,96.107,574.339,569.766,0.0
55950.0,STARLINK-5911,PAYLOAD,2024-04-13 12:51:32,14.98335681,0.0002732,70.0018,217.2737,268.0652,92.0194,-5.4727e-05,-7.46e-06,0.0,0 STARLINK-5911,1 55950U 23037AN  24104.53579585 -.00000746  00000-0 -54727-4 0  9995,2 55950  70.0018 217.2737 0002732 268.0652  92.0194 14.98335681 60687,6950.175,96.107,573.939,570.142,0.0
55950.0,STARLINK-5911,PAYLOAD,2024-04-13 14:27:41,14.9833313,0.000266,70.0016,217.1061,264.7211,95.3645,-7.7995e-05,-1.023e-05,0.0,0 STARLINK-5911,1 55950U 23037AN  24104.60255821 -.00001023  00000-0 -77995-4 0  9998,2 55950  70.0016 217.1061 0002660 264.7211  95.3645 14.98333130 60356,6950.183,96.107,573.897,570.199,0.0
55950.0,STARLINK-5911,PAYLOAD,2024-04-13 17:39:57,14.98333673,0.0002714,70.0017,216.7698,266.3654,93.7195,-6.8892e-05,-9.15e-06,0.0,0 STARLINK-5911,1 55950U 23037AN  24104.73607721 -.00000915  00000-0 -68892-4 0  9997,2 55950  70.0017 216.7698 0002714 266.3654  93.7195 14.98333673 60373,6950.182,96.107,573.933,570.16,0.0
55950.0,STARLINK-5911,PAYLOAD,2024-04-14 12:53:33,14.98334847,0.0003013,70.0016,214.7498,271.518,88.5634,-4.0587e-05,-5.77e-06,0.0,0 STARLINK-5911,1 55950U 23037AN  24105.53719127 -.00000577  00000-0 -40587-4 0  9995,2 55950  70.0016 214.7498 0003013 271.5180  88.5634 14.98334847 60838,6950.178,96.107,574.137,569.949,0.0
55950.0,STARLINK-5911,PAYLOAD,2024-04-14 16:05:47,14.98399935,0.0002529,70.002,214.4131,256.0086,104.0792,-0.0010291,-0.00012372,0.0,0 STARLINK-5911,1 55950U 23037AN  24105.67069305 -.00012372  00000-0 -10291-2 0  9999,2 55950  70.0020 214.4131 0002529 256.0086 104.0792 14.98399935 60858,6949.977,96.103,573.599,570.084,0.0
55950.0,STARLINK-5911,PAYLOAD,2024-04-15 12:55:32,14.98339136,0.0002827,70.0064,212.2298,192.4462,167.6627,0.00022351,2.576e-05,0.0,0 STARLINK-5911,1 55950U 23037AN  24106.53857406  .00002576  00000-0  22351-3 0  9996,2 55950  70.0064 212.2298 0002827 192.4462 167.6627 14.98339136 60981,6950.165,96.106,573.994,570.065,0.0
55950.0,STARLINK-5911,PAYLOAD,2024-04-15 14:31:39,14.98359492,0.0002571,70.0023,212.0573,244.2808,115.8086,0.00035829,4.188e-05,0.0,0 STARLINK-5911,1 55950U 23037AN  24106.60531677  .00004188  00000-0  35829-3 0  9998,2 55950  70.0023 212.0573 0002571 244.2808 115.8086 14.98359492 60651,6950.102,96.105,573.754,570.18,0.0
55950.0,STARLINK-5911,PAYLOAD,2024-04-16 00:08:27,14.9835926,0.0002918,70.0015,211.0457,275.8062,84.2765,0.00022507,2.596e-05,0.0,0 STARLINK-5911,1 55950U 23037AN  24107.00587221  .00002596  00000-0  22507-3 0  9999,2 55950  70.0015 211.0457 0002918 275.8062  84.2765 14.98359260 61050,6950.102,96.105,573.995,569.939,0.0
55950.0,STARLINK-5911,PAYLOAD,2024-04-16 12:57:38,14.98284651,0.0003243,70.0008,209.6997,274.4994,85.5794,-0.00055849,-6.743e-05,0.0,0 STARLINK-5911,1 55950U 23037AN  24107.54002714 -.00006743  00000-0 -55849-3 0  9992,2 55950  70.0008 209.6997 0003243 274.4994  85.5794 14.98284651 61131,6950.333,96.11,574.452,569.944,0.0
55950.0,STARLINK-5911,PAYLOAD,2024-04-16 14:33:46,14.98281474,0.0002899,70.001,209.5304,270.0437,90.039,-0.00058761,-7.088e-05,0.0,0 STARLINK-5911,1 55950U 23037AN  24107.60679062 -.00007088  00000-0 -58761-3 0  9994,2 55950  70.0010 209.5304 0002899 270.0437  90.0390 14.98281474 60801,6950.343,96.11,574.223,570.193,0.0
55950.0,STARLINK-5911,PAYLOAD,2024-04-16 16:09:54,14.98289046,0.0003013,70.0013,209.3633,270.4257,89.6557,-0.00050422,-6.098e-05,0.0,0 STARLINK-5911,1 55950U 23037AN  24107.67354607 -.00006098  00000-0 -50422-3 0  9992,2 55950  70.0013 209.3633 0003013 270.4257  89.6557 14.98289046 61151,6950.32,96.11,574.279,570.09,0.0
55950.0,STARLINK-5911,PAYLOAD,2024-04-17 12:59:37,14.98329352,0.0002776,70.0028,207.1755,264.4412,95.643,-0.00031146,-3.807e-05,0.0,0 STARLINK-5911,1 55950U 23037AN  24108.54140489 -.00003807  00000-0 -31146-3 0  9997,2 55950  70.0028 207.1755 0002776 264.4412  95.6430 14.98329352 61285,6950.195,96.107,573.989,570.131,0.0
55950.0,STARLINK-5911,PAYLOAD,2024-04-17 14:35:44,14.98341156,0.0003046,70.001,207.0065,268.7672,91.3138,-0.00016101,-2.014e-05,0.0,0 STARLINK-5911,1 55950U 23037AN  24108.60815332 -.00002014  00000-0 -16101-3 0  9993,2 55950  70.0010 207.0065 0003046 268.7672  91.3138 14.98341156 60952,6950.158,96.106,574.14,569.906,0.0
55950.0,STARLINK-5911,PAYLOAD,2024-04-17 16:11:52,14.98342883,0.0003048,70.0012,206.8388,267.5051,92.5759,-0.00012079,-1.534e-05,0.0,0 STARLINK-5911,1 55950U 23037AN  24108.67491091 -.00001534  00000-0 -12079-3 0  9998,2 55950  70.0012 206.8388 0003048 267.5051  92.5759 14.98342883 61309,6950.153,96.106,574.136,569.9,0.0
